ALOS-2                  
1 39766U 14029A   26155.15364782  .00001331  00000+0  18499-3 0  9993
2 39766  97.9214 252.5036 0001600  89.6550 270.4844 14.79483847649652
KAZEOSAT 2              
1 40010U 14033A   26155.16207690  .00000239  00000+0  33530-4 0  9997
2 40010  97.5408 355.4618 0009042  12.5706 347.5734 14.85451981647026
HODOYOSHI-4             
1 40011U 14033B   26155.19111066  .00001323  00000+0  14885-3 0  9998
2 40011  97.5448 340.6410 0023573 352.4301   7.6557 14.88095557646874
DEIMOS-2                
1 40013U 14033D   26155.18726847  .00001764  00000+0  17194-3 0  9993
2 40013  97.5837  30.1319 0001913  57.8182 302.3224 14.93686492635788
HODOYOSHI-3             
1 40015U 14033F   26155.04898022  .00001319  00000+0  15788-3 0  9998
2 40015  97.6408 318.6198 0033789  40.0318 320.3379 14.85360480645672
SPOT 7                  
1 40053U 14034A   26155.16861362  .00000563  00000+0  12424-3 0  9995
2 40053  98.0631 217.9949 0001166  85.1026 275.0308 14.60946755635239
SKYSAT-B                
1 40072U 14037D   26154.60898846  .00001643  00000+0  18569-3 0  9990
2 40072  98.3831 112.8009 0004889 336.4365  23.6625 14.87990525643947
WORLDVIEW-3 (WV-3)      
1 40115U 14048A   26155.16287041  .00001085  00000+0  13347-3 0  9990
2 40115  97.8567 230.1755 0001936  46.1143 314.0231 14.85000000639972
GAOFEN-2                
1 40118U 14049A   26155.20330362  .00000811  00000+0  11195-3 0  9999
2 40118  98.0111 219.4221 0005930 278.2641  81.7899 14.80884629637316
YAOGAN-21               
1 40143U 14053A   26155.18148417  .00008403  00000+0  32730-3 0  9990
2 40143  97.1477 195.9771 0009490 131.1495 229.0565 15.26173944652974
YAOGAN-22               
1 40275U 14063A   26155.02885433 -.00000062  00000+0 -39117-4 0  9998
2 40275 100.7708 306.0844 0006033 215.5941 144.4768 13.15530690558080
ASNARO                  
1 40298U 14070A   26155.18508294  .00008941  00000+0  41897-3 0  9994
2 40298  97.3452 231.6517 0004014 166.3181 193.8164 15.19917726642030
YAOGAN-24               
1 40310U 14072A   26155.20358345  .00000607  00000+0  95402-4 0  9997
2 40310  98.1475 292.4324 0012898 309.4271  50.5795 14.76204442621806
CBERS 4                 
1 40336U 14079A   26155.21203980 -.00000001  00000+0  14329-4 0  9995
2 40336  98.3534 212.4497 0002059  78.2511 281.8906 14.35505007602090
YAOGAN-26               
1 40362U 14088A   26155.19752340  .00033713  00000+0  67131-3 0  9993
2 40362  97.0646 155.7158 0006589  96.0216 264.1786 15.46816971635694
SMAP                    
1 40376U 15003A   26155.15671374  .00000577  00000+0  12072-3 0  9995
2 40376  98.1276 162.4359 0001260  90.8570 269.2777 14.63354919605717
KOMPSAT-3A              
1 40536U 15014A   26155.16762917  .00024217  00000+0  35953-3 0  9990
2 40536  97.6887 145.5844 0055353 222.2312 137.4671 15.53384921619793
SENTINEL-2A             
1 40697U 15028A   26155.20769948  .00000084  00000+0  48640-4 0  9993
2 40697  98.5685 230.2428 0001053  87.0057 273.1246 14.30819730571875
GAOFEN-8                
1 40701U 15030A   26155.20509453  .00009429  00000+0  19880-3 0  9990
2 40701  97.6904 347.8008 0007799 236.4123 123.6381 15.45447969609443
CARBONITE 1 (CBNT-1)    
1 40718U 15032D   26155.16534509  .00001250  00000+0  15781-3 0  9995
2 40718  97.6500 333.7776 0014132 343.5055  16.5697 14.83543483587413
YAOGAN-27               
1 40878U 15040A   26155.18103889  .00000119  00000+0  42463-3 0  9996
2 40878 100.1146 142.1287 0007428 243.1230 116.9125 13.16068815515952
GAOFEN-9 01             
1 40894U 15047A   26155.17420123  .00001058  00000+0  13606-3 0  9993
2 40894  97.6286 191.4598 0027356 179.5714 180.5529 14.82857823578265
YAOGAN-28               
1 41026U 15064A   26155.21961431  .00007458  00000+0  28169-3 0  9997
2 41026  97.3065 293.7482 0009552 231.4337 128.6047 15.27244232588702
YAOGAN-29               
1 41038U 15069A   26155.22389588  .00000093  00000+0  18068-4 0  9999
2 41038  98.0025 183.8356 0002929  75.3313 284.8224 14.83072157568704
KENT RIDGE 1            
1 41167U 15077B   26151.92243609  .00004809  00000+0  16665-3 0  9996
2 41167  14.9811  26.9327 0008386   8.7098 351.3369 15.23022815578617
GAOFEN-4                
1 41194U 15083A   26155.01562769 -.00000323  00000+0  00000+0 0  9998
2 41194   0.3238  83.8120 0004292 109.3271 170.6585  1.00270622 38394
JASON-3                 
1 41240U 16002A   26155.18710450 -.00000071  00000+0 -33005-4 0  9999
2 41240  66.0389 153.1666 0008602 273.2930  86.7104 12.87627715485576
SENTINEL-3A             
1 41335U 16011A   26155.17240965  .00000140  00000+0  75974-4 0  9998
2 41335  98.6251 222.7424 0001306 105.9361 254.1963 14.26736300536205
ZIYUAN 3-02 (ZY 3-02)   
1 41556U 16033A   26155.16720262  .00005857  00000+0  26403-3 0  9991
2 41556  97.3834 231.1902 0012004 340.8500  19.2283 15.21348355556000
CARTOSAT-2C             
1 41599U 16040A   26155.15116778  .00003342  00000+0  16188-3 0  9992
2 41599  97.4489 215.3071 0009527 172.4899 187.6480 15.19208175551737
SKYSAT-C1               
1 41601U 16040C   26155.12346186  .00009456  00000+0  27117-3 0  9997
2 41601  96.9565 187.5531 0004335  83.7463 276.4276 15.36068707555866
