OBJECT_NAME,OBJECT_ID,EPOCH,MEAN_MOTION,ECCENTRICITY,INCLINATION,RA_OF_ASC_NODE,ARG_OF_PERICENTER,MEAN_ANOMALY,EPHEMERIS_TYPE,CLASSIFICATION_TYPE,NORAD_CAT_ID,ELEMENT_SET_NO,REV_AT_EPOCH,BSTAR,MEAN_MOTION_DOT,MEAN_MOTION_DDOT
ALOS-2,2014-029A,2026-06-04T03:41:15.171648,14.79483847,.00016,97.9214,252.5036,89.6550,270.4844,0,U,39766,999,64965,.18499E-3,.1331E-4,0
KAZEOSAT 2,2014-033A,2026-06-04T03:53:23.444160,14.85451981,.0009042,97.5408,355.4618,12.5706,347.5734,0,U,40010,999,64702,.3353E-4,.239E-5,0
HODOYOSHI-4,2014-033B,2026-06-04T04:35:11.961024,14.88095557,.0023573,97.5448,340.6410,352.4301,7.6557,0,U,40011,999,64687,.14885E-3,.1323E-4,0
DEIMOS-2,2014-033D,2026-06-04T04:29:39.995808,14.93686492,.0001913,97.5837,30.1319,57.8182,302.3224,0,U,40013,999,63578,.17194E-3,.1764E-4,0
HODOYOSHI-3,2014-033F,2026-06-04T01:10:31.891008,14.85360480,.0033789,97.6408,318.6198,40.0318,320.3379,0,U,40015,999,64567,.15788E-3,.1319E-4,0
SPOT 7,2014-034A,2026-06-04T04:02:48.216768,14.60946755,.0001166,98.0631,217.9949,85.1026,275.0308,0,U,40053,999,63523,.12424E-3,.563E-5,0
SKYSAT-B,2014-037D,2026-06-03T14:36:56.602944,14.87990525,.0004889,98.3831,112.8009,336.4365,23.6625,0,U,40072,999,64394,.18569438E-3,.1643E-4,0
WORLDVIEW-3 (WV-3),2014-048A,2026-06-04T03:54:32.003424,14.85000000,.0001936,97.8567,230.1755,46.1143,314.0231,0,U,40115,999,63997,.13347E-3,.1085E-4,0
GAOFEN-2,2014-049A,2026-06-04T04:52:45.432768,14.80884629,.000593,98.0111,219.4221,278.2641,81.7899,0,U,40118,999,63731,.11195E-3,.811E-5,0
YAOGAN-21,2014-053A,2026-06-04T04:21:20.232288,15.26173944,.000949,97.1477,195.9771,131.1495,229.0565,0,U,40143,999,65297,.3273E-3,.8403E-4,0
YAOGAN-22,2014-063A,2026-06-04T00:41:33.014112,13.15530690,.0006033,100.7708,306.0844,215.5941,144.4768,0,U,40275,999,55808,-.39117E-4,-.62E-6,0
ASNARO,2014-070A,2026-06-04T04:26:31.166016,15.19917726,.0004014,97.3452,231.6517,166.3181,193.8164,0,U,40298,999,64203,.41897E-3,.8941E-4,0
YAOGAN-24,2014-072A,2026-06-04T04:53:09.610080,14.76204442,.0012898,98.1475,292.4324,309.4271,50.5795,0,U,40310,999,62180,.95402E-4,.607E-5,0
CBERS 4,2014-079A,2026-06-04T05:05:20.238720,14.35505007,.0002059,98.3534,212.4497,78.2511,281.8906,0,U,40336,999,60209,.14329E-4,-.1E-7,0
YAOGAN-26,2014-088A,2026-06-04T04:44:26.021760,15.46816971,.0006589,97.0646,155.7158,96.0216,264.1786,0,U,40362,999,63569,.67131E-3,.33713E-3,0
SMAP,2015-003A,2026-06-04T03:45:40.067136,14.63354919,.000126,98.1276,162.4359,90.8570,269.2777,0,U,40376,999,60571,.12072E-3,.577E-5,0
KOMPSAT-3A,2015-014A,2026-06-04T04:01:23.160288,15.53384921,.0055353,97.6887,145.5844,222.2312,137.4671,0,U,40536,999,61979,.35953E-3,.24217E-3,0
SENTINEL-2A,2015-028A,2026-06-04T04:59:05.235072,14.30819730,.0001053,98.5685,230.2428,87.0057,273.1246,0,U,40697,999,57187,.4864E-4,.84E-6,0
GAOFEN-8,2015-030A,2026-06-04T04:55:20.167392,15.45447969,.0007799,97.6904,347.8008,236.4123,123.6381,0,U,40701,999,60944,.1988E-3,.9429E-4,0
CARBONITE 1 (CBNT-1),2015-032D,2026-06-04T03:58:05.815776,14.83543483,.0014132,97.6500,333.7776,343.5055,16.5697,0,U,40718,999,58741,.15781E-3,.125E-4,0
YAOGAN-27,2015-040A,2026-06-04T04:20:41.760096,13.16068815,.0007428,100.1146,142.1287,243.1230,116.9125,0,U,40878,999,51595,.42463E-3,.119E-5,0
GAOFEN-9 01,2015-047A,2026-06-04T04:10:50.986272,14.82857823,.0027356,97.6286,191.4598,179.5714,180.5529,0,U,40894,999,57826,.13606E-3,.1058E-4,0
YAOGAN-28,2015-064A,2026-06-04T05:16:14.676384,15.27244232,.0009552,97.3065,293.7482,231.4337,128.6047,0,U,41026,999,58870,.28169E-3,.7458E-4,0
YAOGAN-29,2015-069A,2026-06-04T05:22:24.604032,14.83072157,.0002929,98.0025,183.8356,75.3313,284.8224,0,U,41038,999,56870,.18068E-4,.93E-6,0
KENT RIDGE 1,2015-077B,2026-05-31T22:08:18.478176,15.23022815,.00083865,14.9811,26.9327,8.7098,351.3369,0,U,41167,999,57861,.16664618E-3,.4809E-4,0
GAOFEN-4,2015-083A,2026-06-04T00:22:30.232416,1.00270622,.0004292,0.3238,83.8120,109.3271,170.6585,0,U,41194,999,3839,0,-.323E-5,0
JASON-3,2016-002A,2026-06-04T04:29:25.828800,12.87627715,.0008602,66.0389,153.1666,273.2930,86.7104,0,U,41240,999,48557,-.33005E-4,-.71E-6,0
SENTINEL-3A,2016-011A,2026-06-04T04:08:16.193760,14.26736300,.0001306,98.6251,222.7424,105.9361,254.1963,0,U,41335,999,53620,.75974E-4,.14E-5,0
ZIYUAN 3-02 (ZY 3-02),2016-033A,2026-06-04T04:00:46.306368,15.21348355,.0012004,97.3834,231.1902,340.8500,19.2283,0,U,41556,999,55600,.26403E-3,.5857E-4,0
CARTOSAT-2C,2016-040A,2026-06-04T03:37:40.896192,15.19208175,.0009527,97.4489,215.3071,172.4899,187.6480,0,U,41599,999,55173,.16188E-3,.3342E-4,0
SKYSAT-C1,2016-040C,2026-06-04T02:57:47.104704,15.36068707,.0004335,96.9565,187.5531,83.7463,276.4276,0,U,41601,999,55586,.27117E-3,.9456E-4,0
